NORAD_CAT_ID,OBJECT_NAME,OBJECT_TYPE,EPOCH,MEAN_MOTION,ECCENTRICITY,INCLINATION,RA_OF_ASC_NODE,ARG_OF_PERICENTER,MEAN_ANOMALY,BSTAR,MEAN_MOTION_DOT,MEAN_MOTION_DDOT,TLE_LINE0,TLE_LINE1,TLE_LINE2,SEMIMAJOR_AXIS,PERIOD,APOGEE,PERIGEE,DECAYED
51769.0,STARLINK-3621,PAYLOAD,2022-03-12 22:00:00,15.7319854,0.0001509,53.2197,68.0224,60.4563,62.0834,-0.00010381,-0.00015162,0.0,0 STARLINK-3621,1 51769U 22017B   22071.91667824 -.00015162  00000-0 -10381-3 0  9998,2 51769  53.2197  68.0224 0001509  60.4563  62.0834 15.73198540  3636,6727.899,91.533,350.78,348.749,0.0
51769.0,STARLINK-3621,PAYLOAD,2022-03-13 14:00:01,15.73160862,0.000152,53.2196,64.7254,51.3779,248.9602,5.9333e-05,7.701e-05,0.0,0 STARLINK-3621,1 51769U 22017B   22072.58334491  .00007701  00000-0  59333-4 0  9992,2 51769  53.2196  64.7254 0001520  51.3779 248.9602 15.73160862  3007,6728.007,91.535,350.894,348.849,0.0
51769.0,STARLINK-3621,PAYLOAD,2022-03-13 22:00:01,15.73150847,0.0001452,53.22,63.0742,60.2684,329.0145,0.0006322,0.00088861,0.0,0 STARLINK-3621,1 51769U 22017B   22072.91668981  .00088861  00000-0  63220-3 0  9998,2 51769  53.2200  63.0742 0001452  60.2684 329.0145 15.73150847  3066,6728.035,91.536,350.87699999999984,348.923,0.0
51769.0,STARLINK-3621,PAYLOAD,2022-03-14 04:00:00,15.73256077,0.0001514,53.2202,61.8386,55.8509,310.0656,7.134e-05,9.427e-05,0.0,0 STARLINK-3621,1 51769U 22017B   22073.16667824  .00009427  00000-0  71340-4 0  9995,2 51769  53.2202  61.8386 0001514  55.8509 310.0656 15.73256077  3837,6727.735,91.53,350.619,348.582,0.0
51769.0,STARLINK-3621,PAYLOAD,2022-03-14 14:00:01,15.73268999,0.0001406,53.2196,59.7766,51.6844,155.5665,0.00033199,0.00046368,0.0,0 STARLINK-3621,1 51769U 22017B   22073.58335648  .00046368  00000-0  33199-3 0  9991,2 51769  53.2196  59.7766 0001406  51.6844 155.5665 15.73268999  3167,6727.698,91.529,350.509,348.61800000000005,0.0
51769.0,STARLINK-3621,PAYLOAD,2022-03-14 20:00:01,15.73296583,0.0001255,53.2196,58.5381,60.3893,123.5648,0.00044263,0.0006222,0.0,0 STARLINK-3621,1 51769U 22017B   22073.83334491  .00062220  00000-0  44263-3 0  9993,2 51769  53.2196  58.5381 0001255  60.3893 123.5648 15.73296583  3931,6727.62,91.528,350.329,348.641,0.0
51769.0,STARLINK-3621,PAYLOAD,2022-03-14 22:00:00,15.72711118,0.0001668,53.2177,58.1181,62.229,233.9433,0.0049093,0.00736888,0.0,0 STARLINK-3621,1 51769U 22017B   22073.91667824  .00736888  00000-0  49093-2 0  9994,2 51769  53.2177  58.1181 0001668  62.2290 233.9433 15.72711118  3959,6729.2890000000025,91.562,352.277,350.032,0.0
51769.0,STARLINK-3621,PAYLOAD,2022-03-15 02:00:01,15.73168272,0.0001688,53.2175,57.2931,61.5067,98.8443,0.00044505,0.00062219,0.0,0 STARLINK-3621,1 51769U 22017B   22074.08334491  .00062219  00000-0  44505-3 0  9998,2 51769  53.2175  57.2931 0001688  61.5067  98.8443 15.73168272  3975,6727.986,91.535,350.986,348.715,0.0
51769.0,STARLINK-3621,PAYLOAD,2022-03-15 22:00:00,15.73187371,0.0001296999999999,53.218,53.1774,60.3643,142.53,-0.00041951,-0.00059051,0.0,0 STARLINK-3621,1 51769U 22017B   22074.91667824 -.00059051  00000-0 -41951-3 0  9993,2 51769  53.2180  53.1774 0001297  60.3643 142.5300 15.73187371  3378,6727.931,91.534,350.6690000000001,348.9240000000001,0.0
51769.0,STARLINK-3621,PAYLOAD,2022-03-16 04:00:00,15.73157599,0.0001363,53.2181,51.9419,52.4903,127.0953,0.00014963,0.00020393,0.0,0 STARLINK-3621,1 51769U 22017B   22075.16667824  .00020393  00000-0  14963-3 0  9999,2 51769  53.2181  51.9419 0001363  52.4903 127.0953 15.73157599  4143,6728.016,91.536,350.798,348.964,0.0
51769.0,STARLINK-3621,PAYLOAD,2022-03-16 14:00:01,15.73187467,0.0001314,53.2179,49.8798,51.308,329.3556,0.00013974,0.00019025,0.0,0 STARLINK-3621,1 51769U 22017B   22075.58334491  .00019025  00000-0  13974-3 0  9997,2 51769  53.2179  49.8798 0001314  51.3080 329.3556 15.73187467  3485,6727.931,91.534,350.68,348.912,0.0
51769.0,STARLINK-3621,PAYLOAD,2022-03-16 20:00:01,15.7318936,0.0001166,53.2179,48.6415,57.1965,300.1524,0.00037825,0.00052774,0.0,0 STARLINK-3621,1 51769U 22017B   22075.83334491  .00052774  00000-0  37825-3 0  9994,2 51769  53.2179  48.6415 0001166  57.1965 300.1524 15.73189360  3520,6727.926,91.534,350.575,349.006,0.0
51769.0,STARLINK-3621,PAYLOAD,2022-03-17 06:00:00,15.73166349,0.0001174,53.2181,46.5819,42.6937,155.83,0.00021469,0.00029573,0.0,0 STARLINK-3621,1 51769U 22017B   22076.25001157  .00029573  00000-0  21469-3 0  9999,2 51769  53.2181  46.5819 0001174  42.6937 155.8300 15.73166349  4312,6727.991,91.535,350.646,349.066,0.0
51769.0,STARLINK-3621,PAYLOAD,2022-03-17 14:00:01,15.73211404,0.0001041,53.2181,44.9313,45.1924,242.2295,9.5451e-05,0.00012803,0.0,0 STARLINK-3621,1 51769U 22017B   22076.58334491  .00012803  00000-0  95451-4 0  9996,2 51769  53.2181  44.9313 0001041  45.1924 242.2295 15.73211404  3642,6727.863,91.533,350.42800000000005,349.027,0.0
51769.0,STARLINK-3621,PAYLOAD,2022-03-17 22:00:00,15.73236571,0.0001055,53.2185,43.2808,56.2884,320.0758,0.00037113,0.00051869,0.0,0 STARLINK-3621,1 51769U 22017B   22076.91667824  .00051869  00000-0  37113-3 0  9997,2 51769  53.2185  43.2808 0001055  56.2884 320.0758 15.73236571  3696,6727.791,91.531,350.366,348.946,0.0
51769.0,STARLINK-3621,PAYLOAD,2022-03-18 08:00:01,15.73226008,0.0001273,53.2188,41.2212,45.7882,171.8161,-6.3151e-05,-9.483e-05,0.0,0 STARLINK-3621,1 51769U 22017B   22077.33334491 -.00009483  00000-0 -63151-4 0  9994,2 51769  53.2188  41.2212 0001273  45.7882 171.8161 15.73226008  4481,6727.821,91.532,350.542,348.83,0.0
51769.0,STARLINK-3621,PAYLOAD,2022-03-18 14:00:01,15.73209649,0.0001113,53.2186,39.9826,48.5899,145.7294,-0.00016051,-0.00023093,0.0,0 STARLINK-3621,1 51769U 22017B   22077.58334491 -.00023093  00000-0 -16051-3 0  9990,2 51769  53.2186  39.9826 0001113  48.5899 145.7294 15.73209649  3721,6727.868,91.533,350.481,348.9840000000001,0.0
51769.0,STARLINK-3621,PAYLOAD,2022-03-18 22:00:00,15.73227149,9.13e-05,53.2188,38.3327,53.8515,229.3798,-0.00010044,-0.00014707,0.0,0 STARLINK-3621,1 51769U 22017B   22077.91667824 -.00014707  00000-0 -10044-3 0  9994,2 51769  53.2188  38.3327 0000913  53.8515 229.3798 15.73227149  3726,6727.818,91.532,350.297,349.069,0.0
51769.0,STARLINK-3621,PAYLOAD,2022-03-19 02:00:01,15.73246317,0.0001001,53.2186,37.5091,44.2513,103.5211,-0.00066473,-0.00093065,0.0,0 STARLINK-3621,1 51769U 22017B   22078.08335648 -.00093065  00000-0 -66473-3 0  9990,2 51769  53.2186  37.5091 0001001  44.2513 103.5211 15.73246317  4603,6727.763000000001,91.53,350.302,348.955,0.0
51769.0,STARLINK-3621,PAYLOAD,2022-03-19 14:00:01,15.73238611,9.43e-05,53.2187,35.0345,44.9676,56.1369,-0.00062827,-0.00088017,0.0,0 STARLINK-3621,1 51769U 22017B   22078.58334491 -.00088017  00000-0 -62827-3 0  9990,2 51769  53.2187  35.0345 0000943  44.9676  56.1369 15.73238611  4683,6727.785,91.531,350.285,349.016,0.0
51769.0,STARLINK-3621,PAYLOAD,2022-03-19 22:00:01,15.73178038,0.0001033,53.2192,33.3845,59.7598,130.3371,0.00032803,0.00045623,0.0,0 STARLINK-3621,1 51769U 22017B   22078.91668981  .00045623  00000-0  32803-3 0  9996,2 51769  53.2192  33.3845 0001033  59.7598 130.3371 15.73178038  3709,6727.958000000001,91.534,350.51800000000014,349.12800000000016,0.0
51769.0,STARLINK-3621,PAYLOAD,2022-03-20 06:00:00,15.73192293,0.0001278,53.2193,31.7373,48.8251,230.1253,0.00041579,0.00058118,0.0,0 STARLINK-3621,1 51769U 22017B   22079.25001157  .00058118  00000-0  41579-3 0  9993,2 51769  53.2193  31.7373 0001278  48.8251 230.1253 15.73192293  4780,6727.917,91.534,350.642,348.922,0.0
51769.0,STARLINK-3621,PAYLOAD,2022-03-20 14:00:01,15.73232975,0.0001209,53.2191,30.0863,59.172,308.7311,-0.00028654,-0.00040696,0.0,0 STARLINK-3621,1 51769U 22017B   22079.58334491 -.00040696  00000-0 -28654-3 0  9992,2 51769  53.2191  30.0863 0001209  59.1720 308.7311 15.73232975  3681,6727.801,91.531,350.48,348.853,0.0
51769.0,STARLINK-3621,PAYLOAD,2022-03-20 20:00:01,15.73192312,0.0001281999999999,53.2191,28.8487,66.4677,278.1476,0.00056514,0.0007942,0.0,0 STARLINK-3621,1 51769U 22017B   22079.83334491  .00079420  00000-0  56514-3 0  9991,2 51769  53.2191  28.8487 0001282  66.4677 278.1476 15.73192312  4886,6727.917,91.534,350.645,348.92,0.0
51769.0,STARLINK-3621,PAYLOAD,2022-03-20 22:00:01,15.73221628,0.0001286,53.2191,28.4368,65.9943,30.9136,0.00029784,0.00041425,0.0,0 STARLINK-3621,1 51769U 22017B   22079.91668981  .00041425  00000-0  29784-3 0  9997,2 51769  53.2191  28.4368 0001286  65.9943  30.9136 15.73221628  3715,6727.834,91.532,350.564,348.833,0.0
51769.0,STARLINK-3621,PAYLOAD,2022-03-21 06:00:00,15.73248519,0.0001343,53.219,26.7894,54.2274,131.5858,-0.00013692,-0.00019831,0.0,0 STARLINK-3621,1 51769U 22017B   22080.25001157 -.00019831  00000-0 -13692-3 0  9991,2 51769  53.2190  26.7894 0001343  54.2274 131.5858 15.73248519  4944,6727.757,91.53,350.525,348.718,0.0
51769.0,STARLINK-3621,PAYLOAD,2022-03-21 14:00:01,15.73243719,0.0001207,53.2189,25.1382,61.6625,213.1315,-0.00065307,-0.00091453,0.0,0 STARLINK-3621,1 51769U 22017B   22080.58334491 -.00091453  00000-0 -65307-3 0  9997,2 51769  53.2189  25.1382 0001207  61.6625 213.1315 15.73243719  3691,6727.771,91.531,350.4480000000001,348.8230000000001,0.0
51769.0,STARLINK-3621,PAYLOAD,2022-03-21 22:00:00,15.73213467,0.0001264999999999,53.2191,23.4886,66.5458,297.181,-5.4177e-05,-8.22e-05,0.0,0 STARLINK-3621,1 51769U 22017B   22080.91667824 -.00008220  00000-0 -54177-4 0  9997,2 51769  53.2191  23.4886 0001265  66.5458 297.1810 15.73213467  3695,6727.857,91.532,350.5730000000001,348.871,0.0
51769.0,STARLINK-3621,PAYLOAD,2022-03-22 06:00:00,15.73148364,0.0001262,53.2192,21.8412,54.0999,38.5629,0.00034118,0.00047427,0.0,0 STARLINK-3621,1 51769U 22017B   22081.25001157  .00047427  00000-0  34118-3 0  9998,2 51769  53.2192  21.8412 0001262  54.0999  38.5629 15.73148364  5108,6728.042,91.536,350.756,349.05800000000005,0.0
